GSAT0101 (PRN E11)      
1 37846U 11060A   23018.52890210 -.00000056  00000+0  00000+0 0  9997
2 37846  57.0633  15.4955 0003183 333.1314  26.8759  1.70475852 69883
GSAT0102 (PRN E12)      
1 37847U 11060B   23018.74285605 -.00000056  00000+0  00000+0 0  9998
2 37847  57.0643  15.4894 0004874 315.3321 222.7766  1.70475175 69899
GSAT0103 (PRN E19)      
1 38857U 12055A   23017.98111270  .00000016  00000+0  00000+0 0  9991
2 38857  55.2043 135.7996 0003241 243.3118 116.6215  1.70473458 63903
GSAT0104 (PRN E20)      
1 38858U 12055B   23017.36431489  .00000021  00000+0  00000+0 0  9997
2 38858  55.2043 135.8182 0001569 190.4705 169.4954  1.70473709 63755
GSAT0201 (PRN E18)      
1 40128U 14050A   23016.65257084 -.00000082  00000+0  00000+0 0  9993
2 40128  50.1304 323.7839 1613186 131.7456 243.2427  1.85519237 55171
GSAT0202 (PRN E14)      
1 40129U 14050B   23017.99079555 -.00000081  00000+0  00000+0 0  9996
2 40129  50.1508 322.7968 1610464 132.6033 242.1789  1.85519847 57366
GSAT0203 (PRN E26)      
1 40544U 15017A   23015.37536819 -.00000054  00000+0  00000+0 0  9992
2 40544  56.8579  15.5855 0005094 268.6431  91.3254  1.70475844 47911
GSAT0204 (PRN E22)      
1 40545U 15017B   23017.38836950 -.00000054  00000+0  00000+0 0  9995
2 40545  56.8642  15.5438 0004549 259.0970 100.8780  1.70475397 10997
GSAT0205 (PRN E24)      
1 40889U 15045A   23016.56998605  .00000053  00000+0  00000+0 0  9990
2 40889  55.4906 256.0757 0006766  34.3967 325.7311  1.70472884 45742
GSAT0206 (PRN E30)      
1 40890U 15045B   23017.96385210  .00000059  00000+0  00000+0 0  9995
2 40890  55.4891 256.0328 0004474  22.7443 337.3651  1.70472891 45794
GSAT0209 (PRN E09)      
1 41174U 15079A   23016.96325396  .00000023  00000+0  00000+0 0  9997
2 41174  55.2211 135.5328 0002370 308.7194  51.2306  1.70474758 44093
GSAT0208 (PRN E08)      
1 41175U 15079B   23018.35593182  .00000012  00000+0  00000+0 0  9991
2 41175  55.2197 135.4930 0001727 306.7690  53.1805  1.70474597 43959
GSAT0211 (PRN E02)      
1 41549U 16030A   23017.88946757  .00000059  00000+0  00000+0 0  9992
2 41549  55.6332 255.9907 0004816 342.2316  17.8409  1.70473026 41426
GSAT0210 (PRN E01)      
1 41550U 16030B   23018.18143371  .00000060  00000+0  00000+0 0  9991
2 41550  55.6341 255.9840 0002664   2.1311 357.9606  1.70474366 41425
GSAT0207 (PRN E07)      
1 41859U 16069A   23016.67069966  .00000025  00000+0  00000+0 0  9995
2 41859  54.8824 135.6695 0002507 284.5838  75.3606  1.70474724 38135
GSAT0212 (PRN E03)      
1 41860U 16069B   23018.28437593  .00000013  00000+0  00000+0 0  9998
2 41860  54.8805 135.6220 0001208 332.5635  27.3954  1.70473330 38412
GSAT0213 (PRN E04)      
1 41861U 16069C   23017.47643436  .00000019  00000+0  00000+0 0  9990
2 41861  54.8823 135.6500 0003000 251.9058 108.0302  1.70473413 38268
GSAT0214 (PRN E05)      
1 41862U 16069D   23017.62359891  .00000018  00000+0  00000+0 0  9996
2 41862  54.8796 135.6402 0002210 250.6232 109.3210  1.70473483 38394
GSAT0215 (PRN E21)      
1 43055U 17079A   23018.11382645  .00000060  00000+0  00000+0 0  9999
2 43055  55.6106 255.8137 0002064 353.8343   6.2534  1.70473710 31749
GSAT0216 (PRN E25)      
1 43056U 17079B   23017.23270268  .00000056  00000+0  00000+0 0  9994
2 43056  55.6121 255.8379 0003519 316.2782  43.7806  1.70473991 31740
GSAT0217 (PRN E27)      
1 43057U 17079C   23016.27983380  .00000052  00000+0  00000+0 0  9990
2 43057  55.6105 255.8637 0003721 335.5987  24.4670  1.70473898 31714
GSAT0218 (PRN E31)      
1 43058U 17079D   23014.15353735  .00000044  00000+0  00000+0 0  9992
2 43058  55.6123 255.9198 0003044 316.2629  43.7942  1.70473676 31704
GSAT0221 (PRN E15)      
1 43564U 18060A   23016.98485867 -.00000053  00000+0  00000+0 0  9991
2 43564  57.2395  15.4114 0005643 282.9336  77.0298  1.70475694 27906
GSAT0222 (PRN E33)      
1 43565U 18060B   23018.37790331 -.00000055  00000+0  00000+0 0  9994
2 43565  57.2425  15.3743 0005278 289.5643  70.4027  1.70475585 27979
GSAT0219 (PRN E36)      
1 43566U 18060C   23018.01185626 -.00000054  00000+0  00000+0 0  9990
2 43566  57.2428  15.3862 0004945 290.7034  69.2684  1.70475587 27947
GSAT0220 (PRN E13)      
1 43567U 18060D   23018.23213693 -.00000055  00000+0  00000+0 0  9992
2 43567  57.2423  15.3812 0005024 285.0975  74.8712  1.70475382 27934
GSAT0223                
1 49809U 21116A   23016.61928653 -.00000053  00000+0  00000+0 0  9990
2 49809  57.2349  15.3224 0002760 245.2101 295.0766  1.70475737  6911
GSAT0224                
1 49810U 21116B   23017.32206622 -.00000053  00000+0  00000+0 0  9996
2 49810  57.2362  15.3014 0002169 254.9888 109.0836  1.70475690  6951
